[{"OBJECT_NAME":"STARLINK-4278","OBJECT_ID":"2022-083BC","EPOCH":"2026-03-09T10:55:33.298464","MEAN_MOTION":15.08842599,"ECCENTRICITY":0.00014936,"INCLINATION":53.2175,"RA_OF_ASC_NODE":140.166,"ARG_OF_PERICENTER":93.1625,"MEAN_ANOMALY":266.9538,"EPHEMERIS_TYPE":0,"CLASSIFICATION_TYPE":"U","NORAD_CAT_ID":53182,"ELEMENT_SET_NO":999,"REV_AT_EPOCH":20166,"BSTAR":4.2861899e-5,"MEAN_MOTION_DOT":3.94e-6,"MEAN_MOTION_DDOT":0},{"OBJECT_NAME":"OBJECT L","OBJECT_ID":"2024-205L","EPOCH":"2026-03-07T03:22:40.585728","MEAN_MOTION":15.10822925,"ECCENTRICITY":0.00547724,"INCLINATION":97.4213,"RA_OF_ASC_NODE":140.2188,"ARG_OF_PERICENTER":346.2042,"MEAN_ANOMALY":13.7688,"EPHEMERIS_TYPE":0,"CLASSIFICATION_TYPE":"U","NORAD_CAT_ID":61904,"ELEMENT_SET_NO":999,"REV_AT_EPOCH":7282,"BSTAR":0.00079283043,"MEAN_MOTION_DOT":0.00013606,"MEAN_MOTION_DDOT":0}]
