STARLINK-4278           
1 53182U 22083BC  26068.45524651  .00000394  00000+0  42862-4 0  9999
2 53182  53.2175 140.1660 0001493  93.1625 266.9538 15.08842599201660
2024-205L               
1 61904U 24205L   26066.14074752  .00013606  00000+0  79283-3 0  9990
2 61904  97.4213 140.2188 0054772 346.2042  13.7688 15.10822925 72825
